{"type": "FeatureCollection", "features": [ {"type": "Feature", "properties": {"norad_id": 39778, "name": "IRIDIUM 33 DEB", "group": "iridium-33-debris", "lat": 77.57993803403313, "lon": -148.4652831052028, "alt_km": 699.4007362092334, "timestamp": "2025-12-01T03:58:49.184672+00:00", "meta": {"OBJECT_NAME": "IRIDIUM 33 DEB", "OBJECT_ID": "1997-051AAK", "EPOCH": "2025-11-28T22:39:52.364448", "MEAN_MOTION": 14.54103709, "ECCENTRICITY": 0.00090272, "INCLINATION": 86.3783, "RA_OF_ASC_NODE": 49.2122, "ARG_OF_PERICENTER": 80.8858, "MEAN_ANOMALY": 279.337, "EPHEMERIS_TYPE": 0, "CLASSIFICATION_TYPE": "U", "NORAD_CAT_ID": 39778, "ELEMENT_SET_NO": 999, "REV_AT_EPOCH": 60492, "BSTAR": 0.0010078213, "MEAN_MOTION_DOT": 4.278e-05, "MEAN_MOTION_DDOT": 0, "GROUP": "iridium-33-debris"}, "tle": {"line1": "1 39778U 97051AAK 25332.94435607  .00004278  00000+0  10078-2 0  9997", "line2": "2 39778  86.3783  49.2122 0009027  80.8858 279.3370 14.54103709604922"}}, "geometry": {"type": "Point", "coordinates": [-148.4652831052028, 77.57993803403313]}}, {"type": "Feature", "properties": {"norad_id": 39781, "name": "IRIDIUM 33 DEB", "group": "iridium-33-debris", "lat": -3.642731949818563, "lon": 82.97788100739956, "alt_km": 904.2699155847231, "timestamp": "2025-12-01T03:58:49.184682+00:00", "meta": {"OBJECT_NAME": "IRIDIUM 33 DEB", "OBJECT_ID": "1997-051AAN", "EPOCH": "2025-11-30T14:25:00.725376", "MEAN_MOTION": 14.20056399, "ECCENTRICITY": 0.0182345, "INCLINATION": 86.3693, "RA_OF_ASC_NODE": 262.979, "ARG_OF_PERICENTER": 311.3565, "MEAN_ANOMALY": 226.5322, "EPHEMERIS_TYPE": 0, "CLASSIFICATION_TYPE": "U", "NORAD_CAT_ID": 39781, "ELEMENT_SET_NO": 999, "REV_AT_EPOCH": 7934, "BSTAR": 0.0057558, "MEAN_MOTION_DOT": 0.0001451, "MEAN_MOTION_DDOT": 0, "GROUP": "iridium-33-debris"}, "tle": {"line1": "1 39781U 97051AAN 25334.60070284  .00014510  00000+0  57558-2 0  9996", "line2": "2 39781  86.3693 262.9790 0182345 311.3565 226.5322 14.20056399 79341"}}, "geometry": {"type": "Point", "coordinates": [82.97788100739956, -3.642731949818563]}}, {"type": "Feature", "properties": {"norad_id": 39783, "name": "IRIDIUM 33 DEB", "group": "iridium-33-debris", "lat": -76.29702456721682, "lon": 97.41776395092167, "alt_km": 496.41557330949036, "timestamp": "2025-12-01T03:58:49.184693+00:00", "meta": {"OBJECT_NAME": "IRIDIUM 33 DEB", "OBJECT_ID": "1997-051AAQ", "EPOCH": "2025-11-16T15:05:40.850592", "MEAN_MOTION": 15.19327111, "ECCENTRICITY": 0.00057535, "INCLINATION": 86.1306, "RA_OF_ASC_NODE": 268.8004, "ARG_OF_PERICENTER": 179.9151, "MEAN_ANOMALY": 1.8316, "EPHEMERIS_TYPE": 0, "CLASSIFICATION_TYPE": "U", "NORAD_CAT_ID": 39783, "ELEMENT_SET_NO": 999, "REV_AT_EPOCH": 60401, "BSTAR": 0.010398125, "MEAN_MOTION_DOT": 0.00226179, "MEAN_MOTION_DDOT": 0, "GROUP": "iridium-33-debris"}, "tle": {"line1": "1 39783U 97051AAQ 25320.62894503  .00226179  00000+0  10398-1 0  9999", "line2": "2 39783  86.1306 268.8004 0005753 179.9151   1.8316 15.19327111604018"}}, "geometry": {"type": "Point", "coordinates": [97.41776395092167, -76.29702456721682]}}, {"type": "Feature", "properties": {"norad_id": 40996, "name": "IRIDIUM 33 DEB", "group": "iridium-33-debris", "lat": 79.45868214626879, "lon": 166.77128939929509, "alt_km": 566.2320419589514, "timestamp": "2025-12-01T03:58:49.184703+00:00", "meta": {"OBJECT_NAME": "IRIDIUM 33 DEB", "OBJECT_ID": "1997-051ABJ", "EPOCH": "2025-11-30T01:58:04.991808", "MEAN_MOTION": 14.95095343, "ECCENTRICITY": 0.00120283, "INCLINATION": 86.3535, "RA_OF_ASC_NODE": 7.3184, "ARG_OF_PERICENTER": 99.499, "MEAN_ANOMALY": 290.4978, "EPHEMERIS_TYPE": 0, "CLASSIFICATION_TYPE": "U", "NORAD_CAT_ID": 40996, "ELEMENT_SET_NO": 999, "REV_AT_EPOCH": 62299, "BSTAR": 0.0030307541, "MEAN_MOTION_DOT": 0.00033396, "MEAN_MOTION_DDOT": 0, "GROUP": "iridium-33-debris"}, "tle": {"line1": "1 40996U 97051ABJ 25334.08200222  .00033396  00000+0  30308-2 0  9992", "line2": "2 40996  86.3535   7.3184 0012028  99.4990 290.4978 14.95095343622996"}}, "geometry": {"type": "Point", "coordinates": [166.77128939929509, 79.45868214626879]}}, {"type": "Feature", "properties": {"norad_id": 40998, "name": "IRIDIUM 33 DEB", "group": "iridium-33-debris", "lat": 38.43376430841469, "lon": -124.27703986607038, "alt_km": 733.4587140940012, "timestamp": "2025-12-01T03:58:49.184713+00:00", "meta": {"OBJECT_NAME": "IRIDIUM 33 DEB", "OBJECT_ID": "1997-051ABL", "EPOCH": "2025-11-26T13:54:44.256096", "MEAN_MOTION": 14.45011011, "ECCENTRICITY": 0.00091951, "INCLINATION": 86.3834, "RA_OF_ASC_NODE": 60.5577, "ARG_OF_PERICENTER": 126.7628, "MEAN_ANOMALY": 292.1903, "EPHEMERIS_TYPE": 0, "CLASSIFICATION_TYPE": "U", "NORAD_CAT_ID": 40998, "ELEMENT_SET_NO": 999, "REV_AT_EPOCH": 6448, "BSTAR": 0.00068392227, "MEAN_MOTION_DOT": 2.406e-05, "MEAN_MOTION_DDOT": 0, "GROUP": "iridium-33-debris"}, "tle": {"line1": "1 40998U 97051ABL 25330.57967889  .00002406  00000+0  68392-3 0  9996", "line2": "2 40998  86.3834  60.5577 0009195 126.7628 292.1903 14.45011011 64486"}}, "geometry": {"type": "Point", "coordinates": [-124.27703986607038, 38.43376430841469]}}, {"type": "Feature", "properties": {"norad_id": 46435, "name": "IRIDIUM 33 DEB", "group": "iridium-33-debris", "lat": -19.0485839779564, "lon": 20.20977755779628, "alt_km": 854.1144359772643, "timestamp": "2025-12-01T03:58:49.184724+00:00", "meta": {"OBJECT_NAME": "IRIDIUM 33 DEB", "OBJECT_ID": "1997-051ABN", "EPOCH": "2025-11-29T09:55:50.719008", "MEAN_MOTION": 14.31124144, "ECCENTRICITY": 0.02140805, "INCLINATION": 86.2846, "RA_OF_ASC_NODE": 199.6762, "ARG_OF_PERICENTER": 319.3143, "MEAN_ANOMALY": 220.6231, "EPHEMERIS_TYPE": 0, "CLASSIFICATION_TYPE": "U", "NORAD_CAT_ID": 46435, "ELEMENT_SET_NO": 999, "REV_AT_EPOCH": 7725, "BSTAR": 0.006461235, "MEAN_MOTION_DOT": 0.0002197, "MEAN_MOTION_DDOT": 0, "GROUP": "iridium-33-debris"}, "tle": {"line1": "1 46435U 97051ABN 25333.41378147  .00021970  00000+0  64612-2 0  9994", "line2": "2 46435  86.2846 199.6762 0214080 319.3143 220.6231 14.31124144 77259"}}, "geometry": {"type": "Point", "coordinates": [20.20977755779628, -19.0485839779564]}}, {"type": "Feature", "properties": {"norad_id": 46734, "name": "IRIDIUM 33 DEB", "group": "iridium-33-debris", "lat": -25.56321713966747, "lon": 6.153610545923592, "alt_km": 736.5163554024639, "timestamp": "2025-12-01T03:58:49.184734+00:00", "meta": {"OBJECT_NAME": "IRIDIUM 33 DEB", "OBJECT_ID": "1997-051ABR", "EPOCH": "2025-11-30T20:36:46.303200", "MEAN_MOTION": 14.41769446, "ECCENTRICITY": 0.0039788, "INCLINATION": 86.2648, "RA_OF_ASC_NODE": 8.0789, "ARG_OF_PERICENTER": 15.2963, "MEAN_ANOMALY": 167.1696, "EPHEMERIS_TYPE": 0, "CLASSIFICATION_TYPE": "U", "NORAD_CAT_ID": 46734, "ELEMENT_SET_NO": 999, "REV_AT_EPOCH": 62839, "BSTAR": 0.00092163, "MEAN_MOTION_DOT": 3.055e-05, "MEAN_MOTION_DDOT": 0, "GROUP": "iridium-33-debris"}, "tle": {"line1": "1 46734U 97051ABR 25334.85886925  .00003055  00000+0  92163-3 0  9990", "line2": "2 46734  86.2648   8.0789 0039788  15.2963 167.1696 14.41769446628393"}}, "geometry": {"type": "Point", "coordinates": [6.153610545923592, -25.56321713966747]}}, {"type": "Feature", "properties": {"norad_id": 46965, "name": "IRIDIUM 33 DEB", "group": "iridium-33-debris", "lat": 66.77892024517102, "lon": -5.578886005514905, "alt_km": 678.0328192159423, "timestamp": "2025-12-01T03:58:49.184745+00:00", "meta": {"OBJECT_NAME": "IRIDIUM 33 DEB", "OBJECT_ID": "1997-051ABX", "EPOCH": "2025-11-28T12:13:13.662624", "MEAN_MOTION": 14.60132141, "ECCENTRICITY": 0.00200477, "INCLINATION": 86.3356, "RA_OF_ASC_NODE": 347.008, "ARG_OF_PERICENTER": 21.5606, "MEAN_ANOMALY": 129.6154, "EPHEMERIS_TYPE": 0, "CLASSIFICATION_TYPE": "U", "NORAD_CAT_ID": 46965, "ELEMENT_SET_NO": 999, "REV_AT_EPOCH": 62060, "BSTAR": 0.00075262534, "MEAN_MOTION_DOT": 3.652e-05, "MEAN_MOTION_DDOT": 0, "GROUP": "iridium-33-debris"}, "tle": {"line1": "1 46965U 97051ABX 25332.50918591  .00003652  00000+0  75263-3 0  9996", "line2": "2 46965  86.3356 347.0080 0020047  21.5606 129.6154 14.60132141620603"}}, "geometry": {"type": "Point", "coordinates": [-5.578886005514905, 66.77892024517102]}}, {"type": "Feature", "properties": {"norad_id": 46971, "name": "IRIDIUM 33 DEB", "group": "iridium-33-debris", "lat": 20.683513944703463, "lon": -20.0534730655802, "alt_km": 571.6513621679806, "timestamp": "2025-12-01T03:58:49.184755+00:00", "meta": {"OBJECT_NAME": "IRIDIUM 33 DEB", "OBJECT_ID": "1997-051ACD", "EPOCH": "2025-11-09T08:35:11.738400", "MEAN_MOTION": 14.9522637, "ECCENTRICITY": 0.00093361, "INCLINATION": 86.3413, "RA_OF_ASC_NODE": 348.7724, "ARG_OF_PERICENTER": 69.239, "MEAN_ANOMALY": 304.7916, "EPHEMERIS_TYPE": 0, "CLASSIFICATION_TYPE": "U", "NORAD_CAT_ID": 46971, "ELEMENT_SET_NO": 999, "REV_AT_EPOCH": 63731, "BSTAR": 0.0029563675, "MEAN_MOTION_DOT": 0.00032664, "MEAN_MOTION_DDOT": 0, "GROUP": "iridium-33-debris"}, "tle": {"line1": "1 46971U 97051ACD 25313.35777475  .00032664  00000+0  29564-2 0  9996", "line2": "2 46971  86.3413 348.7724 0009336  69.2390 304.7916 14.95226370637318"}}, "geometry": {"type": "Point", "coordinates": [-20.0534730655802, 20.683513944703463]}}]}